[Satellite]
VERSION=1.1
NAME=FLOCK 2E'-8
NICKNAME=FLOCK 2E'-8
TLE1=1 41569U 98067JT  18021.01498129  .00067336  00000-0  25997-3 0  9991
TLE2=2 41569  51.6302 331.9214 0001705 103.9258 256.1936 15.86631610 93953
